AII-BRAVO               
1 48270U 21034C   26068.69561509  .00006142  00000+0  46527-3 0  9993
2 48270  97.5758 125.8704 0005372 233.3237 126.7495 15.02621336264679
STARLINK-35043          
1 65436U 25194C   26068.54821914  .00003389  00000+0  26824-3 0  9998
2 65436  97.6045 285.0493 0002262  74.6485 285.4989 15.01266309 29676
